SCS-01 K                
1 63991U 25100K   25144.53313824  .00015272  00000+0  64544-3 0  9993
2 63991  97.4037 220.0364 0012390 233.7890 126.2202 15.23258138  1558
SCS-01 L                
1 63992U 25100L   25144.53295643  .00015201  00000+0  64187-3 0  9997
2 63992  97.4065 220.0405 0012763 234.3203 125.6846 15.23284625  1541
SCS-01 M                
1 63993U 25100M   25144.53274954  .00016137  00000+0  68268-3 0  9993
2 63993  97.4066 220.0408 0012956 235.7260 124.2750 15.23203853  1552
STARLINK-33871          
1 63994U 25101A   25144.50002315 -.01061995  00000+0 -45137-2 0  9996
2 63994  42.9985 198.4312 0001555 281.7331  96.7348 15.86823604  1550
STARLINK-34154          
1 63995U 25101B   25144.50002315 -.01065068  00000+0 -45230-2 0  9996
2 63995  42.9984 198.4261 0001575 281.8753  98.6355 15.86847508  2676
STARLINK-34158          
1 63996U 25101C   25144.50002315 -.01828783  00000+0 -12692-1 0  9993
2 63996  42.9990 198.5409 0001229 267.4855  67.3838 15.76609568  1565
STARLINK-34165          
1 63997U 25101D   25144.50002315 -.01077632  00000+0 -45652-2 0  9996
2 63997  42.9985 198.4090 0001499 287.0483 100.3174 15.86927826  2674
STARLINK-34150          
1 63998U 25101E   25144.50002315 -.01064380  00000+0 -45132-2 0  9996
2 63998  42.9987 198.4215 0001546 278.1555 104.2735 15.86876753  1565
STARLINK-34169          
1 63999U 25101F   25144.50002315 -.01068516  00000+0 -45270-2 0  9995
2 63999  42.9985 198.4159 0001440 282.6529 101.9268 15.86904563  1572
STARLINK-34152          
1 64000U 25101G   25144.50002315 -.01105768  00000+0 -46745-2 0  9998
2 64000  42.9985 198.3847 0001455 273.7012 123.1825 15.87039208  2698
STARLINK-33927          
1 64001U 25101H   25144.50002315 -.01087873  00000+0 -46069-2 0  9994
2 64001  42.9986 198.4035 0001445 281.7879 107.8056 15.86960661  1553
STARLINK-33898          
1 64002U 25101J   25143.91668981 -.01126666  00000+0 -44441-2 0  9992
2 64002  42.9990 201.9923 0001697 262.2729  33.9294 15.88463162  1337
STARLINK-33928          
1 64003U 25101K   25144.16667824 -.01108879  00000+0 -45103-2 0  9998
2 64003  42.9986 200.4538 0001335 268.9874  15.7575 15.87817378  2626
STARLINK-33758          
1 64004U 25101L   25143.91668981 -.01158188  00000+0 -45553-2 0  9993
2 64004  42.9990 201.9763 0001780 272.9282  29.6419 15.88594644  1304
STARLINK-33936          
1 64005U 25101M   25143.91668981 -.01151439  00000+0 -45356-2 0  9997
2 64005  42.9990 201.9813 0001484 268.9763  31.5942 15.88552411  1300
STARLINK-33931          
1 64006U 25101N   25143.91668981 -.01176655  00000+0 -46288-2 0  9990
2 64006  42.9993 201.9694 0001510 274.7088  30.5854 15.88639235  1307
STARLINK-33759          
1 64007U 25101P   25143.91668981 -.01208180  00000+0 -46579-2 0  9993
2 64007  42.9992 201.9641 0001567 274.4462  32.9166 15.88679898  1305
STARLINK-34163          
1 64008U 25101Q   25143.91668981 -.01211963  00000+0 -46655-2 0  9992
2 64008  42.9993 201.9582 0001682 270.7097  39.0761 15.88715512  1305
STARLINK-34077          
1 64009U 25101R   25143.91668981 -.01223281  00000+0 -47049-2 0  9997
2 64009  42.9992 201.9522 0001550 273.6581  38.5168 15.88756852  1300
STARLINK-34113          
1 64010U 25101S   25143.91668981 -.01222389  00000+0 -46928-2 0  9992
2 64010  42.9996 201.9473 0001674 270.8706  43.3530 15.88789967  1384
STARLINK-34193          
1 64011U 25101T   25143.91668981 -.01230852  00000+0 -47199-2 0  9998
2 64011  42.9994 201.9412 0001593 269.5844  47.0034 15.88830076  1382
STARLINK-34078          
1 64012U 25101U   25144.50002315 -.01219959  00000+0 -50452-2 0  9999
2 64012  42.9987 198.3321 0001560 288.0314 129.9202 15.87311438  2647
STARLINK-34182          
1 64013U 25101V   25144.50002315 -.01234370  00000+0 -51038-2 0  9995
2 64013  42.9990 198.3267 0001348 284.6401 135.4059 15.87346979  2644
STARLINK-34192          
1 64014U 25101W   25144.50002315 -.01248035  00000+0 -51609-2 0  9993
2 64014  42.9991 198.3203 0001529 282.7234 139.9584 15.87370431  2596
STARLINK-34093          
1 64015U 25101X   25144.50002315 -.01258402  00000+0 -52016-2 0  9996
2 64015  42.9991 198.3151 0001438 286.2402 138.5430 15.87400956  2696
STARLINK-34016          
1 64016U 25101Y   25144.50002315 -.01267743  00000+0 -52390-2 0  9990
2 64016  42.9990 198.3086 0001478 287.2233 139.9822 15.87424201  2688
STARLINK-34161          
1 64017U 25101Z   25144.50002315 -.01284888  00000+0 -53065-2 0  9990
2 64017  42.9988 198.2968 0001229 281.6209 150.2462 15.87474808  2683
STARLINK-34162          
1 64018U 25101AA  25144.50002315 -.01295121  00000+0 -53468-2 0  9990
2 64018  42.9986 198.2908 0001429 281.0824 153.1287 15.87500840  2688
STARLINK-34155          
1 64019U 25101AB  25144.50002315 -.01303981  00000+0 -53826-2 0  9993
2 64019  42.9988 198.2843 0001435 280.2281 156.5223 15.87521901  2604
STARLINK-34141          
1 64020U 25101AC  25144.50002315 -.01306090  00000+0 -53816-2 0  9998
2 64020  42.9987 198.2803 0001457 282.2249 156.0055 15.87561872  2688
STARLINK-34062          
1 64021U 25101AD  25144.50002315 -.01273051  00000+0 -52564-2 0  9998
2 64021  42.9991 198.3032 0001515 288.7349 140.5477 15.87451847  2547
STARLINK-34051          
1 64022U 25102A   25144.50002315 -.01027784  00000+0 -41569-2 0  9993
2 64022  69.9906 133.3649 0003790 278.5779  24.5305 15.88360633  2394
STARLINK-34184          
1 64023U 25102B   25144.16667824 -.01050814  00000+0 -40838-2 0  9996
2 64023  69.9914 134.3238 0003487 277.3154 283.9962 15.89209688  2344
STARLINK-34087          
1 64024U 25102C   25144.16667824 -.01037920  00000+0 -40402-2 0  9997
2 64024  69.9914 134.3264 0003662 275.2739 284.0101 15.89145771  2221
STARLINK-34088          
1 64025U 25102D   25144.16667824 -.01173858  39562-3 -40682-2 0  9998
2 64025  69.9915 134.3214 0003555 275.3710 288.1809 15.89268233  2341
STARLINK-33992          
1 64026U 25102E   25144.16667824 -.01190738  40646-3 -41134-2 0  9993
2 64026  69.9913 134.3185 0003501 276.2364 289.6279 15.89335604  2437
STARLINK-33967          
1 64027U 25102F   25144.16667824 -.01185946  40365-3 -40859-2 0  9990
2 64027  69.9914 134.3162 0003581 276.2993 291.6215 15.89387835  2278
STARLINK-33953          
1 64028U 25102G   25144.16667824 -.01195158  40967-3 -41064-2 0  9994
2 64028  69.9914 134.3138 0003608 276.1565 293.7313 15.89443589  2435
STARLINK-33790          
1 64029U 25102H   25144.16667824 -.01225111  42915-3 -41944-2 0  9990
2 64029  69.9915 134.3109 0003505 275.5527 296.7379 15.89519504  2382
STARLINK-34030          
1 64030U 25102J   25144.50002315 -.01048606  00000+0 -41654-2 0  9993
2 64030  69.9903 133.3433 0004006 272.2499  48.7343 15.88763368  2406
STARLINK-34024          
1 64031U 25102K   25144.16667824 -.01231023  43347-3 -41896-2 0  9998
2 64031  69.9913 134.3055 0003573 273.4245 303.4040 15.89638713  2275
STARLINK-34019          
1 64032U 25102L   25144.16667824 -.01264574  45633-3 -42656-2 0  9991
2 64032  69.9911 134.2976 0003611 275.1555 307.9654 15.89820787  2343
STARLINK-33860          
1 64033U 25102M   25144.16667824 -.01238290  43843-3 -42034-2 0  9999
2 64033  69.9910 134.3031 0003647 275.2289 303.3520 15.89691034  2343
STARLINK-33946          
1 64034U 25102N   25144.16667824 -.01237592  43824-3 -41879-2 0  9999
2 64034  69.9911 134.3002 0003581 275.4518 305.6050 15.89753637  2382
STARLINK-34046          
1 64035U 25102P   25144.16667824 -.01283030  46901-3 -43138-2 0  9997
2 64035  69.9909 134.2948 0003592 273.3128 312.1098 15.89888290  2114
STARLINK-34085          
1 64036U 25102Q   25144.16667824 -.01275240  46402-3 -42751-2 0  9998
2 64036  69.9908 134.2919 0003513 275.4993 312.2284 15.89945638  2330
STARLINK-34008          
1 64037U 25102R   25144.16667824 -.01295133  47777-3 -43281-2 0  9997
2 64037  69.9909 134.2894 0003529 274.9042 314.9681 15.90011172  2340
STARLINK-34079          
1 64038U 25102S   25144.16667824 -.01294773  47779-3 -43145-2 0  9998
2 64038  69.9909 134.2866 0003535 275.5512 316.5541 15.90067981  2438
STARLINK-34089          
1 64039U 25102T   25144.16667824 -.01297403  47985-3 -43108-2 0  9990
2 64039  69.9907 134.2841 0003532 273.2341 320.9145 15.90125595  2336
STARLINK-34117          
1 64040U 25102U   25144.16667824 -.01322062  49716-3 -43775-2 0  9996
2 64040  69.9908 134.2813 0003470 274.5492 322.0267 15.90198456  2277
STARLINK-34111          
1 64041U 25102V   25144.16667824 -.01326383  50042-3 -43804-2 0  9994
2 64041  69.9907 134.2791 0003495 273.4236 324.8515 15.90250418  2119
STARLINK-34049          
1 64042U 25102W   25144.16667824 -.01325671  50023-3 -43642-2 0  9993
2 64042  69.9909 134.2763 0003519 274.6048 326.1513 15.90312822  2337
STARLINK-34096          
1 64043U 25102X   25144.16667824 -.01341743  51181-3 -44024-2 0  9993
2 64043  69.9907 134.2733 0003530 274.6185 328.4249 15.90381067  2224
STARLINK-34081          
1 64044U 25102Y   25144.16667824 -.01356777  52276-3 -44382-2 0  9990
2 64044  69.9909 134.2710 0003491 275.0643 330.1263 15.90443657  2277
STARLINK-34033          
1 64045U 25102Z   25144.16667824 -.01382733  54206-3 -44936-2 0  9992
2 64045  69.9910 134.2657 0003667 276.6985 333.1192 15.90575517  2276
STARLINK-33952          
1 64046U 25102AA  25144.16667824 -.01401944  55638-3 -45420-2 0  9998
2 64046  69.9910 134.2631 0003741 275.4031 336.5563 15.90638656  2342
STARLINK-33961          
1 64047U 25102AB  25144.16667824 -.01366034  52968-3 -44546-2 0  9990
2 64047  69.9911 134.2687 0003649 273.5858 333.8461 15.90505435  2220
TIANYI A                
1 64048U 25103A   25144.48667477  .00004285  00000+0  23589-3 0  9996
2 64048  97.4142 219.9550 0006215 110.3341 249.8559 15.14541336  1106
TIANYI B                
1 64049U 25103B   25144.48460506  .00005749  00000+0  31143-3 0  9992
2 64049  97.4197 219.9634 0004319 100.1909 259.9811 15.14981345  1101
